{"fetched_at":"2026-03-29T02:12:04Z","count":15717,"tles":[{"name":"STARLINK-31658","line1":"1 59513U 24073C   26087.60875640  .00000134  00000+0  14406-4 0  9994","line2":"2 59513  43.0032 170.8960 0001298 273.5424  86.5279 15.27577787109525","category":"Starlink"}]}