{
  "norad_id": 59513,
  "name": "STARLINK-31658",
  "history": [
    {
      "epoch": "2026-03-28T14:36:36.552960",
      "apogee_km": 483.9463053811651,
      "perigee_km": 482.1651397503874,
      "latitude_deg": 37.83240835490186,
      "longitude_deg": -170.25938559998758,
      "semi_major_axis_km": 6861.1927225657755,
      "eccentricity": 0.0001298,
      "inclination_deg": 43.0032,
      "raan_deg": 170.896,
      "arg_perigee_deg": 273.5424,
      "mean_anomaly_deg": 86.5279,
      "mean_motion_rev_day": 15.27577787
    }
  ]
}